     2.11           NAVIGATION DATA     GPS(GPS)            RINEX VERSION / TYPE
cnvtToRINEX 3.14.0  convertToRINEX OPR  20220810 190543 UTC PGM / RUN BY / DATE 
----------------------------------------------------------- COMMENT             
    0.7451D-08  0.2235D-07 -0.5960D-07 -0.1192D-06          ION ALPHA           
    0.9216D+05  0.1311D+06 -0.6554D+05 -0.5243D+06          ION BETA            
   -0.931322574615D-09-0.799360577730D-14   233472     2217 DELTA-UTC: A0,A1,T,W
    18                                                      LEAP SECONDS        
                                                            END OF HEADER       
 4 22 07 03 14 00  0.0-0.150228384882D-03 0.432009983342D-11 0.000000000000D+00
    0.207000000000D+03-0.577187500000D+02 0.416160191885D-08 0.246754370982D+01
   -0.296719372272D-05 0.186509487685D-02 0.104736536741D-04 0.515360351563D+04
    0.504000000000D+05 0.111758708954D-07-0.229821796269D+01-0.372529029846D-08
    0.961475981128D+00 0.178656250000D+03-0.298248824925D+01-0.777425240025D-08
    0.194650965137D-09 0.100000000000D+01 0.221700000000D+04 0.000000000000D+00
    0.400000000000D+01 0.000000000000D+00-0.465661287308D-08 0.463000000000D+03
    0.435180000000D+05 0.400000000000D+01 0.000000000000D+00 0.000000000000D+00
 7 22 07 03 16 00  0.0 0.320449937135D-03-0.102318153949D-11 0.000000000000D+00
    0.690000000000D+02 0.180625000000D+02 0.491877631535D-08 0.106352737621D+01
    0.104866921902D-05 0.162878759438D-01 0.721588730812D-05 0.515364810371D+04
    0.576000000000D+05-0.214204192162D-06-0.128035306981D+01 0.577419996262D-07
    0.950302199672D+00 0.238593750000D+03-0.225512860304D+01-0.834749056363D-08
    0.146077513286D-09 0.100000000000D+01 0.221700000000D+04 0.000000000000D+00
    0.200000000000D+01 0.000000000000D+00-0.111758708954D-07 0.690000000000D+02
    0.508680000000D+05 0.400000000000D+01 0.000000000000D+00 0.000000000000D+00
30 22 07 03 14 00  0.0-0.533090438694D-03-0.909494701773D-12 0.000000000000D+00
    0.280000000000D+02 0.195937500000D+02 0.525521890096D-08-0.475834600764D-01
    0.114552676678D-05 0.592875492293D-02 0.649131834507D-05 0.515374104309D+04
    0.504000000000D+05 0.894069671631D-07-0.126922591741D+01 0.577419996262D-07
    0.935450225234D+00 0.241062500000D+03-0.266435856687D+01-0.842499379195D-08
    0.388587614805D-09 0.100000000000D+01 0.221700000000D+04 0.000000000000D+00
    0.200000000000D+01 0.000000000000D+00 0.372529029846D-08 0.280000000000D+02
    0.452280000000D+05 0.400000000000D+01 0.000000000000D+00 0.000000000000D+00
 9 22 07 03 14 00  0.0-0.322677660733D-03 0.363797880709D-11 0.000000000000D+00
    0.610000000000D+02-0.620937500000D+02 0.426267755763D-08-0.289398756298D+01
   -0.313296914101D-05 0.220384960994D-02 0.103935599327D-04 0.515380811501D+04
    0.504000000000D+05 0.186264514923D-07-0.235228609535D+01-0.707805156708D-07
    0.954591384780D+00 0.177281250000D+03 0.190499585413D+01-0.776818071876D-08
    0.146791828755D-09 0.100000000000D+01 0.221700000000D+04 0.000000000000D+00
    0.200000000000D+01 0.000000000000D+00 0.139698386192D-08 0.610000000000D+02
    0.435960000000D+05 0.400000000000D+01 0.000000000000D+00 0.000000000000D+00
 4 22 07 03 16 00  0.0-0.150197185576D-03 0.432009983342D-11 0.000000000000D+00
    0.208000000000D+03-0.528437500000D+02 0.423410493889D-08-0.276512790444D+01
   -0.275485217571D-05 0.186641723849D-02 0.108852982521D-04 0.515360091400D+04
    0.576000000000D+05 0.000000000000D+00-0.229827397782D+01 0.149011611938D-07
    0.961477315309D+00 0.168468750000D+03-0.298277917977D+01-0.778532429001D-08
    0.190722230061D-09 0.100000000000D+01 0.221700000000D+04 0.000000000000D+00
    0.400000000000D+01 0.000000000000D+00-0.465661287308D-08 0.464000000000D+03
    0.508860000000D+05 0.400000000000D+01 0.000000000000D+00 0.000000000000D+00
14 22 07 03 16 00  0.0-0.112018547952D-03 0.000000000000D+00 0.000000000000D+00
    0.900000000000D+01-0.550000000000D+01 0.485663086960D-08 0.371523850134D+00
   -0.230967998505D-06 0.207816460170D-02 0.724568963051D-05 0.515365488243D+04
    0.576000000000D+05 0.558793544769D-07-0.200419361391D+00 0.186264514923D-07
    0.952427113052D+00 0.236250000000D+03-0.310845098913D+01-0.813712465819D-08
   -0.267868300647D-09 0.100000000000D+01 0.221700000000D+04 0.000000000000D+00
    0.200000000000D+01 0.000000000000D+00-0.791624188423D-08 0.900000000000D+01
    0.508860000000D+05 0.400000000000D+01 0.000000000000D+00 0.000000000000D+00
 9 22 07 03 16 00  0.0-0.322651118040D-03 0.363797880709D-11 0.000000000000D+00
    0.620000000000D+02-0.599062500000D+02 0.441982696068D-08-0.184431447156D+01
   -0.318139791489D-05 0.220426276792D-02 0.106990337372D-04 0.515380634117D+04
    0.576000000000D+05 0.558793544769D-08-0.235234207830D+01 0.782310962677D-07
    0.954591661271D+00 0.168562500000D+03 0.190542000821D+01-0.790247202682D-08
    0.882179603464D-10 0.100000000000D+01 0.221700000000D+04 0.000000000000D+00
    0.200000000000D+01 0.000000000000D+00 0.139698386192D-08 0.620000000000D+02
    0.508920000000D+05 0.400000000000D+01 0.000000000000D+00 0.000000000000D+00
30 22 07 03 16 00  0.0-0.533097423613D-03-0.909494701773D-12 0.000000000000D+00
    0.320000000000D+02 0.207187500000D+02 0.518307303865D-08 0.100250683217D+01
    0.120140612125D-05 0.592895108275D-02 0.669807195663D-05 0.515374166107D+04
    0.576000000000D+05-0.102445483208D-06-0.126928536747D+01 0.856816768646D-07
    0.935452911151D+00 0.237531250000D+03-0.266430452229D+01-0.831606068302D-08
    0.254653464482D-09 0.100000000000D+01 0.221700000000D+04 0.000000000000D+00
    0.200000000000D+01 0.000000000000D+00 0.372529029846D-08 0.320000000000D+02
    0.508980000000D+05 0.400000000000D+01 0.000000000000D+00 0.000000000000D+00
20 22 07 03 16 00  0.0 0.506263226271D-03-0.318323145621D-11 0.000000000000D+00
    0.540000000000D+02-0.695000000000D+02 0.499270796633D-08 0.280287640911D+01
   -0.371411442757D-05 0.474576523993D-02 0.337697565556D-05 0.515360968971D+04
    0.576000000000D+05-0.465661287308D-07 0.274516415191D+01 0.484287738800D-07
    0.943976806686D+00 0.307968750000D+03-0.311788226692D+01-0.839963559282D-08
   -0.279654505876D-09 0.100000000000D+01 0.221700000000D+04 0.000000000000D+00
    0.200000000000D+01 0.000000000000D+00-0.838190317154D-08 0.540000000000D+02
    0.509160000000D+05 0.400000000000D+01 0.000000000000D+00 0.000000000000D+00
 6 22 07 03 14 00  0.0 0.369300134480D-03 0.160298441187D-10 0.000000000000D+00
    0.670000000000D+02 0.520312500000D+02 0.411302846700D-08 0.896309923706D+00
    0.257976353168D-05 0.246861740015D-02 0.378303229809D-05 0.515375176430D+04
    0.504000000000D+05-0.186264514923D-07 0.186195678522D+01-0.447034835815D-07
    0.987168893901D+00 0.319312500000D+03-0.861295560257D+00-0.801247660895D-08
    0.442875590403D-10 0.100000000000D+01 0.221700000000D+04 0.000000000000D+00
    0.200000000000D+01 0.000000000000D+00 0.372529029846D-08 0.670000000000D+02
    0.440280000000D+05 0.400000000000D+01 0.000000000000D+00 0.000000000000D+00
 8 22 07 03 16 00  0.0-0.746790319681D-04-0.159161572810D-11 0.000000000000D+00
    0.113000000000D+03 0.785625000000D+02 0.430660795894D-08-0.239656797314D+01
    0.384449958801D-05 0.737290515099D-02 0.101085752249D-04 0.515356023216D+04
    0.576000000000D+05-0.856816768646D-07 0.786841275029D+00-0.188127160072D-06
    0.963237492491D+00 0.189468750000D+03 0.168775211559D+00-0.782282585210D-08
   -0.328585115460D-10 0.100000000000D+01 0.221700000000D+04 0.000000000000D+00
    0.200000000000D+01 0.000000000000D+00 0.512227416039D-08 0.113000000000D+03
    0.522480000000D+05 0.400000000000D+01 0.000000000000D+00 0.000000000000D+00
